OBJECT B                
1 51825U 22019B   24160.93088100  .00015134  00000+0  66758-3 0  9995
2 51825  97.4292 232.3739 0012961 265.6097  94.3658 15.21796856125978
